COSMOS 2531 (RODNIK-S *)
1 43752U 18097B   26157.29064668  .00000080  00000+0  50273-3 0  9995
2 43752  82.5190 230.0972 0017933  80.7382 279.5725 12.42912822340953
COSMOS 2532 (RODNIK-S *)
1 43753U 18097C   26157.31889604  .00000146  00000+0  97948-3 0  9997
2 43753  82.5134 228.8707 0019338  82.5213 277.8064 12.42909906340920
MINXSS-2                
1 43758U 18099A   26157.15697786  .00046553  00000+0  94618-3 0  9997
2 43758  97.4534 233.1248 0006034 302.9517  57.1152 15.46156900412425
SIRION PATHFINDER-2     
1 43759U 18099B   26156.09085588  .00005474  00000+0  30112-3 0  9997
2 43759  97.4254 205.4362 0008178 352.2997   7.8108 15.14436976410795
AISTECHSAT 2            
1 43768U 18099L   26156.40138890  .00005787  00000+0  31048-3 0  9993
2 43768  97.4298 204.6938 0004251   1.4873 358.6372 15.15325756410498
FOX-1CLIFF (AO-95)      
1 43770U 18099N   26156.08244416  .00010962  00000+0  42280-3 0  9993
2 43770  97.4389 216.3757 0009283  40.1659 320.0264 15.26442922411371
RANGE-A                 
1 43773U 18099R   26156.34236460  .00005077  00000+0  28854-3 0  9997
2 43773  97.3965 199.2683 0011034  36.5889 323.6095 15.13281352410702
SNUSAT-2                
1 43782U 18099AA  26156.43152266  .00008637  00000+0  38460-3 0  9997
2 43782  97.4061 209.9971 0009491 345.8710  14.2259 15.21654849411241
SNUGLITE                
1 43784U 18099AC  26156.41419970  .00011108  00000+0  42285-3 0  9992
2 43784  97.3870 210.8120 0002095   6.4712 353.6554 15.26909524411529
ITASAT                  
1 43786U 18099AE  26156.95462127  .00009740  00000+0  46858-3 0  9994
2 43786  97.4028 208.6916 0013278  38.6207 321.5974 15.18913401411201
EAGLET-I                
1 43790U 18099AJ  26156.41212689  .00004665  00000+0  26859-3 0  9996
2 43790  97.4234 206.3930 0011853  34.2261 325.9732 15.12847196410553
ESEO                    
1 43792U 18099AL  26156.33954319  .00001269  00000+0  95419-4 0  9998
2 43792  97.3968 194.2353 0012557  21.0449 339.1292 15.04203258410022
THEA                    
1 43796U 18099AQ  26157.11882927  .00024481  00000+0  72985-3 0  9997
2 43796  97.4442 226.7063 0006184 332.6497  27.4420 15.34639006410999
ASTROCAST 0.1           
1 43798U 18099AS  26157.21606167  .00047317  00000+0  87801-3 0  9996
2 43798  97.4378 235.3769 0004287 246.0143 114.0659 15.48801806412731
JY1SAT (JO-97)          
1 43803U 18099AX  26156.08899900  .00015845  00000+0  49499-3 0  9998
2 43803  97.4134 218.8851 0004294 322.9431  37.1514 15.33253592411773
SUOMI-100               
1 43804U 18099AY  26156.42077123  .00011165  00000+0  40909-3 0  9990
2 43804  97.4187 216.8601 0008764 328.6803  31.3913 15.28141688411624
CENTAURI-1              
1 43809U 18099BD  26156.39356767  .00005337  00000+0  27871-3 0  9992
2 43809  97.4221 208.3671 0014361  16.1687 344.0002 15.16242190410719
GLOBAL-2                
1 43812U 18099BG  26156.33495004  .00003026  00000+0  19735-3 0  9991
2 43812  97.3555 193.3416 0005850 179.2710 180.8529 15.08596926410128
SEAHAWK-1               
1 43820U 18099BQ  26156.96489199  .00012271  00000+0  52984-3 0  9992
2 43820  97.3959 209.6225 0007790   0.6007 359.5238 15.22623018410823
SAUDISAT 5A             
1 43831U 18102A   26157.22838227  .00006952  00000+0  25731-3 0  9998
2 43831  97.3067 219.0211 0010151 163.7610 196.3957 15.27934087414006
SAUDISAT 5B             
1 43833U 18102C   26157.24908907  .00006723  00000+0  24692-3 0  9996
2 43833  97.3175 222.0912 0010773 166.3516 193.8018 15.28196877414125
ISAT                    
1 43879U 18111D   26157.09580191  .00126716  00000+0  13632-2 0  9996
2 43879  97.5890  91.4802 0002780  47.6731 312.4762 15.63313324409436
UWE-4                   
1 43880U 18111E   26156.04483588  .00034971  00000+0  73225-3 0  9990
2 43880  97.5859  83.8833 0007898  27.7618 332.4050 15.45332944408902
D-STAR ONE (SPARROW)    
1 43881U 18111F   26157.12476390  .00190859  00000+0  14762-2 0  9992
2 43881  97.6123  96.9406 0005030  98.3722 261.8111 15.71296086409634
JILIN-1 09              
1 43943U 19005B   26157.18954394  .00005944  00000+0  27574-3 0  9991
2 43943  97.4731 252.2473 0003677 116.5744 243.5868 15.20418249407476
JILIN-1 10              
1 43946U 19005E   26157.17351946  .00007298  00000+0  28989-3 0  9992
2 43946  97.4776 255.9795 0007012 326.2530  33.8261 15.25603925407632
EGYPTSAT-A (MISRSAT-A)  
1 44047U 19008A   26157.26934582  .00000763  00000+0  12850-3 0  9991
2 44047  98.0084 222.1833 0001247  86.1758 273.9592 14.72294046391638
EMISAT                  
1 44078U 19018A   26157.33236603  .00000323  00000+0  10792-3 0  9998
2 44078  98.4644 216.1915 0017263 249.4956 110.4382 14.43682650378492
