OBJECT_NAME,OBJECT_ID,EPOCH,MEAN_MOTION,ECCENTRICITY,INCLINATION,RA_OF_ASC_NODE,ARG_OF_PERICENTER,MEAN_ANOMALY,EPHEMERIS_TYPE,CLASSIFICATION_TYPE,NORAD_CAT_ID,ELEMENT_SET_NO,REV_AT_EPOCH,BSTAR,MEAN_MOTION_DOT,MEAN_MOTION_DDOT
COSMOS 2531 (RODNIK-S 17),2018-097B,2026-06-06T06:58:31.873152,12.42912822,.00179333,82.5190,230.0972,80.7382,279.5725,0,U,43752,999,34095,.50272719E-3,.8E-6,0
COSMOS 2532 (RODNIK-S 18),2018-097C,2026-06-06T07:39:12.617856,12.42909906,.00193386,82.5134,228.8707,82.5213,277.8064,0,U,43753,999,34092,.97948372E-3,.146E-5,0
MINXSS-2,2018-099A,2026-06-06T03:46:02.887104,15.46156900,.00060348,97.4534,233.1248,302.9517,57.1152,0,U,43758,999,41242,.94618452E-3,.46553E-3,0
SIRION PATHFINDER-2,2018-099B,2026-06-05T02:10:49.948032,15.14436976,.0008178,97.4254,205.4362,352.2997,7.8108,0,U,43759,999,41079,.30112E-3,.5474E-4,0
AISTECHSAT 2,2018-099L,2026-06-05T09:38:00.000960,15.15325756,.00042513,97.4298,204.6938,1.4873,358.6372,0,U,43768,999,41049,.31048441E-3,.5787E-4,0
FOX-1CLIFF (AO-95),2018-099N,2026-06-05T01:58:43.175424,15.26442922,.0009283,97.4389,216.3757,40.1659,320.0264,0,U,43770,999,41137,.4228E-3,.10962E-3,0
RANGE-A,2018-099R,2026-06-05T08:13:00.301440,15.13281352,.00110346,97.3965,199.2683,36.5889,323.6095,0,U,43773,999,41070,.28854276E-3,.5077E-4,0
SNUSAT-2,2018-099AA,2026-06-05T10:21:23.557824,15.21654849,.00094919,97.4061,209.9971,345.8710,14.2259,0,U,43782,999,41124,.38459907E-3,.8637E-4,0
SNUGLITE,2018-099AC,2026-06-05T09:56:26.854080,15.26909524,.00020954,97.3870,210.8120,6.4712,353.6554,0,U,43784,999,41152,.42285441E-3,.11108E-3,0
ITASAT,2018-099AE,2026-06-05T22:54:39.277728,15.18913401,.0013278,97.4028,208.6916,38.6207,321.5974,0,U,43786,999,41120,.46857934E-3,.974E-4,0
EAGLET-I,2018-099AJ,2026-06-05T09:53:27.763296,15.12847196,.00118531,97.4234,206.3930,34.2261,325.9732,0,U,43790,999,41055,.2685868E-3,.4665E-4,0
ESEO,2018-099AL,2026-06-05T08:08:56.531616,15.04203258,.00125576,97.3968,194.2353,21.0449,339.1292,0,U,43792,999,41002,.9541927E-4,.1269E-4,0
THEA,2018-099AQ,2026-06-06T02:51:06.848928,15.34639006,.00061845,97.4442,226.7063,332.6497,27.4420,0,U,43796,999,41099,.72984572E-3,.24481E-3,0
ASTROCAST 0.1,2018-099AS,2026-06-06T05:11:07.728288,15.48801806,.00042872,97.4378,235.3769,246.0143,114.0659,0,U,43798,999,41273,.87800572E-3,.47317E-3,0
JY1SAT (JO-97),2018-099AX,2026-06-05T02:08:09.513600,15.33253592,.0004294,97.4134,218.8851,322.9431,37.1514,0,U,43803,999,41177,.49499E-3,.15845E-3,0
SUOMI-100,2018-099AY,2026-06-05T10:05:54.634272,15.28141688,.0008764,97.4187,216.8601,328.6803,31.3913,0,U,43804,999,41162,.40908692E-3,.11165E-3,0
CENTAURI-1,2018-099BD,2026-06-05T09:26:44.246688,15.16242190,.00143619,97.4221,208.3671,16.1687,344.0002,0,U,43809,999,41071,.27870785E-3,.5337E-4,0
GLOBAL-2,2018-099BG,2026-06-05T08:02:19.683456,15.08596926,.000585,97.3555,193.3416,179.2710,180.8529,0,U,43812,999,41012,.19735071E-3,.3026E-4,0
SEAHAWK-1,2018-099BQ,2026-06-05T23:09:26.667936,15.22623018,.00077902,97.3959,209.6225,0.6007,359.5238,0,U,43820,999,41082,.52984413E-3,.12271E-3,0
SAUDISAT 5A,2018-102A,2026-06-06T05:28:52.228128,15.27934087,.00101517,97.3067,219.0211,163.7610,196.3957,0,U,43831,999,41400,.25730758E-3,.6952E-4,0
SAUDISAT 5B,2018-102C,2026-06-06T05:58:41.295648,15.28196877,.00107731,97.3175,222.0912,166.3516,193.8018,0,U,43833,999,41412,.24692239E-3,.6723E-4,0
ISAT,2018-111D,2026-06-06T02:17:57.285024,15.63313324,.00027809,97.5890,91.4802,47.6731,312.4762,0,U,43879,999,40943,.13632193E-2,.126716E-2,0
UWE-4,2018-111E,2026-06-05T01:04:33.820032,15.45332944,.00078982,97.5859,83.8833,27.7618,332.4050,0,U,43880,999,40890,.73225046E-3,.34971E-3,0
D-STAR ONE (SPARROW),2018-111F,2026-06-06T02:59:39.600960,15.71296086,.00050307,97.6123,96.9406,98.3722,261.8111,0,U,43881,999,40963,.14761697E-2,.190859E-2,0
JILIN-1 09,2019-005B,2026-06-06T04:32:56.596416,15.20418249,.00036771,97.4731,252.2473,116.5744,243.5868,0,U,43943,999,40747,.27573985E-3,.5944E-4,0
JILIN-1 10,2019-005E,2026-06-06T04:09:52.081344,15.25603925,.00070125,97.4776,255.9795,326.2530,33.8261,0,U,43946,999,40763,.28989049E-3,.7298E-4,0
EGYPTSAT-A (MISRSAT-A),2019-008A,2026-06-06T06:27:51.478848,14.72294046,.0001247,98.0084,222.1833,86.1758,273.9592,0,U,44047,999,39163,.12850174E-3,.763E-5,0
EMISAT,2019-018A,2026-06-06T07:58:36.424992,14.43682650,.00172636,98.4644,216.1915,249.4956,110.4382,0,U,44078,999,37849,.10792476E-3,.323E-5,0
